NIGHTJAR                
1 60535U 24149BV  26068.64552146  .00004278  00000+0  36344-3 0  9997
2 60535  97.6919 146.7603 0002393  83.3363 276.8132 14.98398810127967
STARLINK-32913          
1 63098U 25037X   26068.88989764  .00007967  00000+0  67472-3 0  9991
2 63098  70.0039 353.8791 0002619 266.0186  94.0674 14.98330525 58643
